{
    "links": {
        "self": "http://www.neowsapp.com/rest/v1/neo/54093096?api_key=iIulBulltgU6a56xZRHN4H3l9WmuAYTsLGpBGhQ2"
    },
    "id": "54093096",
    "neo_reference_id": "54093096",
    "name": "(2020 WA4)",
    "designation": "2020 WA4",
    "nasa_jpl_url": "http://ssd.jpl.nasa.gov/sbdb.cgi?sstr=54093096",
    "absolute_magnitude_h": 27.404,
    "estimated_diameter": {
        "kilometers": {
            "estimated_diameter_min": 0.0087852672,
            "estimated_diameter_max": 0.0196444547
        },
        "meters": {
            "estimated_diameter_min": 8.7852672344,
            "estimated_diameter_max": 19.6444547366
        },
        "miles": {
            "estimated_diameter_min": 0.0054589103,
            "estimated_diameter_max": 0.0122064945
        },
        "feet": {
            "estimated_diameter_min": 28.8230561533,
            "estimated_diameter_max": 64.4503128781
        }
    },
    "is_potentially_hazardous_asteroid": false,
    "close_approach_data": [
        {
            "close_approach_date": "2020-11-24",
            "close_approach_date_full": "2020-Nov-24 19:40",
            "epoch_date_close_approach": 1606246800000,
            "relative_velocity": {
                "kilometers_per_second": "7.1832008237",
                "kilometers_per_hour": "25859.5229652836",
                "miles_per_hour": "16068.1019225119"
            },
            "miss_distance": {
                "astronomical": "0.0316148246",
                "lunar": "12.2981667694",
                "kilometers": "4729510.420583602",
                "miles": "2938781.5022416276"
            },
            "orbiting_body": "Earth"
        },
        {
            "close_approach_date": "2123-01-05",
            "close_approach_date_full": "2123-Jan-05 11:09",
            "epoch_date_close_approach": 4828590540000,
            "relative_velocity": {
                "kilometers_per_second": "15.0473827669",
                "kilometers_per_hour": "54170.5779609545",
                "miles_per_hour": "33659.4905113497"
            },
            "miss_distance": {
                "astronomical": "0.3950935317",
                "lunar": "153.6913838313",
                "kilometers": "59105150.793097479",
                "miles": "36726237.6845600502"
            },
            "orbiting_body": "Earth"
        }
    ],
    "orbital_data": {
        "orbit_id": "1",
        "orbit_determination_date": "2020-11-24 11:12:03",
        "first_observation_date": "2020-11-23",
        "last_observation_date": "2020-11-24",
        "data_arc_in_days": 1,
        "observations_used": 17,
        "orbit_uncertainty": "8",
        "minimum_orbit_intersection": ".0313536",
        "jupiter_tisserand_invariant": "4.561",
        "epoch_osculation": "2459176.5",
        "eccentricity": ".3018023616569462",
        "semi_major_axis": "1.457025594742255",
        "inclination": "11.29406385582979",
        "ascending_node_longitude": "241.6165129595934",
        "orbital_period": "642.3906307339438",
        "perihelion_distance": "1.017291829254426",
        "perihelion_argument": "186.4136983153314",
        "aphelion_distance": "1.896759360230084",
        "perihelion_time": "2459183.350133992973",
        "mean_anomaly": "356.1611391581898",
        "mean_motion": ".5604066790150612",
        "equinox": "J2000",
        "orbit_class": {
            "orbit_class_type": "AMO",
            "orbit_class_description": "Near-Earth asteroid orbits similar to that of 1221 Amor",
            "orbit_class_range": "1.017 AU < q (perihelion) < 1.3 AU"
        }
    },
    "is_sentry_object": false
}